{
  "type": "FeatureCollection",
  "features": [
    {
      "type": "Feature",
      "properties": {
        "norad_id": 66655,
        "name": "2025-274F",
        "group": "last-30-days",
        "lat": 74.56470892801745,
        "lon": -121.31768455493709,
        "alt_km": 585.2186398763406,
        "timestamp": "2025-12-06T20:37:54.814641+00:00",
        "meta_object_name": "2025-274F",
        "meta_object_id": "2025-274F",
        "meta_epoch": "2025-12-06T12:14:39.780960",
        "meta_mean_motion": 14.92404459,
        "meta_eccentricity": 0.00076463,
        "meta_inclination": 97.7348,
        "meta_ra_of_asc_node": 267.8281,
        "meta_arg_of_pericenter": 327.0355,
        "meta_mean_anomaly": 33.0387,
        "meta_ephemeris_type": 0,
        "meta_classification_type": "U",
        "meta_norad_cat_id": 66655,
        "meta_element_set_no": 999,
        "meta_rev_at_epoch": 147,
        "meta_bstar": 0.00032876017,
        "meta_mean_motion_dot": 3.312e-05,
        "meta_mean_motion_ddot": 0,
        "tle_line1": "1 66655U 25274F   25340.51018265  .00003312  00000+0  32876-3 0  9997",
        "tle_line2": "2 66655  97.7348 267.8281 0007646 327.0355  33.0387 14.92404459  1478"
      },
      "geometry": {
        "type": "Point",
        "coordinates": [
          -121.31768455493709,
          74.56470892801745
        ]
      }
    },
    {
      "type": "Feature",
      "properties": {
        "norad_id": 66656,
        "name": "2025-274G",
        "group": "last-30-days",
        "lat": 74.5058291324637,
        "lon": -121.21382344058742,
        "alt_km": 591.8975210863782,
        "timestamp": "2025-12-06T20:37:54.814652+00:00",
        "meta_object_name": "2025-274G",
        "meta_object_id": "2025-274G",
        "meta_epoch": "2025-12-06T13:51:08.777088",
        "meta_mean_motion": 14.92217481,
        "meta_eccentricity": 0.00124552,
        "meta_inclination": 97.7391,
        "meta_ra_of_asc_node": 267.8866,
        "meta_arg_of_pericenter": 280.6757,
        "meta_mean_anomaly": 79.3059,
        "meta_ephemeris_type": 0,
        "meta_classification_type": "U",
        "meta_norad_cat_id": 66656,
        "meta_element_set_no": 999,
        "meta_rev_at_epoch": 148,
        "meta_bstar": 0.00049254934,
        "meta_mean_motion_dot": 4.972e-05,
        "meta_mean_motion_ddot": 0,
        "tle_line1": "1 66656U 25274G   25340.57718492  .00004972  00000+0  49255-3 0  9995",
        "tle_line2": "2 66656  97.7391 267.8866 0012455 280.6757  79.3059 14.92217481  1487"
      },
      "geometry": {
        "type": "Point",
        "coordinates": [
          -121.21382344058742,
          74.5058291324637
        ]
      }
    },
    {
      "type": "Feature",
      "properties": {
        "norad_id": 66657,
        "name": "SPIRONE",
        "group": "last-30-days",
        "lat": 79.65187690866463,
        "lon": -139.97023005608708,
        "alt_km": 589.2919505142472,
        "timestamp": "2025-12-06T20:37:54.814662+00:00",
        "meta_object_name": "SPIRONE",
        "meta_object_id": "2025-274H",
        "meta_epoch": "2025-12-06T12:12:53.945280",
        "meta_mean_motion": 14.92396474,
        "meta_eccentricity": 0.00109747,
        "meta_inclination": 97.7389,
        "meta_ra_of_asc_node": 267.8223,
        "meta_arg_of_pericenter": 300.015,
        "meta_mean_anomaly": 59.998,
        "meta_ephemeris_type": 0,
        "meta_classification_type": "U",
        "meta_norad_cat_id": 66657,
        "meta_element_set_no": 999,
        "meta_rev_at_epoch": 147,
        "meta_bstar": 0.0004858557,
        "meta_mean_motion_dot": 4.924e-05,
        "meta_mean_motion_ddot": 0,
        "tle_line1": "1 66657U 25274H   25340.50895770  .00004924  00000+0  48586-3 0  9997",
        "tle_line2": "2 66657  97.7389 267.8223 0010974 300.0150  59.9980 14.92396474  1476"
      },
      "geometry": {
        "type": "Point",
        "coordinates": [
          -139.97023005608708,
          79.65187690866463
        ]
      }
    },
    {
      "type": "Feature",
      "properties": {
        "norad_id": 66658,
        "name": "2025-274J",
        "group": "last-30-days",
        "lat": 82.24206645507547,
        "lon": -178.4133435118509,
        "alt_km": 589.2545091498032,
        "timestamp": "2025-12-06T20:37:54.814674+00:00",
        "meta_object_name": "2025-274J",
        "meta_object_id": "2025-274J",
        "meta_epoch": "2025-12-06T12:11:14.224128",
        "meta_mean_motion": 14.92570037,
        "meta_eccentricity": 0.00115574,
        "meta_inclination": 97.7391,
        "meta_ra_of_asc_node": 267.8234,
        "meta_arg_of_pericenter": 302.9889,
        "meta_mean_anomaly": 57.0218,
        "meta_ephemeris_type": 0,
        "meta_classification_type": "U",
        "meta_norad_cat_id": 66658,
        "meta_element_set_no": 999,
        "meta_rev_at_epoch": 147,
        "meta_bstar": 0.00047136021,
        "meta_mean_motion_dot": 4.797e-05,
        "meta_mean_motion_ddot": 0,
        "tle_line1": "1 66658U 25274J   25340.50780352  .00004797  00000+0  47136-3 0  9995",
        "tle_line2": "2 66658  97.7391 267.8234 0011557 302.9889  57.0218 14.92570037  1472"
      },
      "geometry": {
        "type": "Point",
        "coordinates": [
          -178.4133435118509,
          82.24206645507547
        ]
      }
    },
    {
      "type": "Feature",
      "properties": {
        "norad_id": 66659,
        "name": "JACK K",
        "group": "last-30-days",
        "lat": 80.00130547764707,
        "lon": 138.65021164745974,
        "alt_km": 589.6057189957774,
        "timestamp": "2025-12-06T20:37:54.814686+00:00",
        "meta_object_name": "JACK K",
        "meta_object_id": "2025-274K",
        "meta_epoch": "2025-12-06T12:09:28.530144",
        "meta_mean_motion": 14.92755789,
        "meta_eccentricity": 0.0012286,
        "meta_inclination": 97.7393,
        "meta_ra_of_asc_node": 267.8254,
        "meta_arg_of_pericenter": 304.1059,
        "meta_mean_anomaly": 55.8994,
        "meta_ephemeris_type": 0,
        "meta_classification_type": "U",
        "meta_norad_cat_id": 66659,
        "meta_element_set_no": 999,
        "meta_rev_at_epoch": 147,
        "meta_bstar": 0.00046618459,
        "meta_mean_motion_dot": 4.767e-05,
        "meta_mean_motion_ddot": 0,
        "tle_line1": "1 66659U 25274K   25340.50658021  .00004767  00000+0  46618-3 0  9994",
        "tle_line2": "2 66659  97.7393 267.8254 0012286 304.1059  55.8994 14.92755789  1476"
      },
      "geometry": {
        "type": "Point",
        "coordinates": [
          138.65021164745974,
          80.00130547764707
        ]
      }
    },
    {
      "type": "Feature",
      "properties": {
        "norad_id": 66660,
        "name": "K-HERO",
        "group": "last-30-days",
        "lat": 75.90602507734856,
        "lon": 120.97432686206292,
        "alt_km": 590.0644446810275,
        "timestamp": "2025-12-06T20:37:54.814697+00:00",
        "meta_object_name": "K-HERO",
        "meta_object_id": "2025-274L",
        "meta_epoch": "2025-12-06T12:08:03.554016",
        "meta_mean_motion": 14.92904179,
        "meta_eccentricity": 0.00129328,
        "meta_inclination": 97.7397,
        "meta_ra_of_asc_node": 267.8271,
        "meta_arg_of_pericenter": 304.6853,
        "meta_mean_anomaly": 55.3147,
        "meta_ephemeris_type": 0,
        "meta_classification_type": "U",
        "meta_norad_cat_id": 66660,
        "meta_element_set_no": 999,
        "meta_rev_at_epoch": 147,
        "meta_bstar": 0.00045617475,
        "meta_mean_motion_dot": 4.682e-05,
        "meta_mean_motion_ddot": 0,
        "tle_line1": "1 66660U 25274L   25340.50559669  .00004682  00000+0  45617-3 0  9998",
        "tle_line2": "2 66660  97.7397 267.8271 0012932 304.6853  55.3147 14.92904179  1470"
      },
      "geometry": {
        "type": "Point",
        "coordinates": [
          120.97432686206292,
          75.90602507734856
        ]
      }
    },
    {
      "type": "Feature",
      "properties": {
        "norad_id": 66661,
        "name": "SNUGLITE-III",
        "group": "last-30-days",
        "lat": 70.99373992625942,
        "lon": 111.43234710054544,
        "alt_km": 590.5903228599973,
        "timestamp": "2025-12-06T20:37:54.814707+00:00",
        "meta_object_name": "SNUGLITE-III",
        "meta_object_id": "2025-274M",
        "meta_epoch": "2025-12-06T12:06:36.508608",
        "meta_mean_motion": 14.93053395,
        "meta_eccentricity": 0.00135673,
        "meta_inclination": 97.7393,
        "meta_ra_of_asc_node": 267.8282,
        "meta_arg_of_pericenter": 305.7513,
        "meta_mean_anomaly": 54.2444,
        "meta_ephemeris_type": 0,
        "meta_classification_type": "U",
        "meta_norad_cat_id": 66661,
        "meta_element_set_no": 999,
        "meta_rev_at_epoch": 147,
        "meta_bstar": 0.00044921114,
        "meta_mean_motion_dot": 4.628e-05,
        "meta_mean_motion_ddot": 0,
        "tle_line1": "1 66661U 25274M   25340.50458922  .00004628  00000+0  44921-3 0  9996",
        "tle_line2": "2 66661  97.7393 267.8282 0013567 305.7513  54.2444 14.93053395  1473"
      },
      "geometry": {
        "type": "Point",
        "coordinates": [
          111.43234710054544,
          70.99373992625942
        ]
      }
    }
  ]
}